NORAD_CAT_ID,OBJECT_NAME,OBJECT_TYPE,EPOCH,MEAN_MOTION,ECCENTRICITY,INCLINATION,RA_OF_ASC_NODE,ARG_OF_PERICENTER,MEAN_ANOMALY,BSTAR,MEAN_MOTION_DOT,MEAN_MOTION_DDOT,TLE_LINE0,TLE_LINE1,TLE_LINE2,SEMIMAJOR_AXIS,PERIOD,APOGEE,PERIGEE,DECAYED
54194.0,STARLINK-5271,PAYLOAD,2024-07-21 03:59:24,15.08843521,0.0001245,53.2157,151.984,106.7971,253.3157,5.9311e-05,6.56e-06,0.0,0 STARLINK-5271,1 54194U 22141AP  24203.16625625  .00000656  00000-0  59311-4 0  9997,2 54194  53.2157 151.9840 0001245 106.7971 253.3157 15.08843521 95949,6917.87,95.437,540.596,538.873,0.0
54194.0,STARLINK-5271,PAYLOAD,2024-07-22 03:50:11,15.08846814,0.0001336,53.2151,147.5242,118.8033,241.3094,5.9805e-05,6.64e-06,0.0,0 STARLINK-5271,1 54194U 22141AP  24204.15985648  .00000664  00000-0  59805-4 0  9998,2 54194  53.2151 147.5242 0001336 118.8033 241.3094 15.08846814 96322,6917.86,95.437,540.649,538.8,0.0
54194.0,STARLINK-5271,PAYLOAD,2024-07-22 05:25:34,15.08850092,0.0001188,53.216,147.2246,102.3945,257.718,0.00010935,1.453e-05,0.0,0 STARLINK-5271,1 54194U 22141AP  24204.22609333  .00001453  00000-0  10935-3 0  9997,2 54194  53.2160 147.2246 0001188 102.3945 257.7180 15.08850092 96104,6917.85,95.437,540.536,538.893,0.0
54194.0,STARLINK-5271,PAYLOAD,2024-07-23 13:13:17,15.08843181,0.0001316,53.2155,141.2783,98.3249,261.7892,8.262e-05,1.027e-05,0.0,0 STARLINK-5271,1 54194U 22141AP  24205.55089779  .00001027  00000-0  82620-4 0  9998,2 54194  53.2155 141.2783 0001316  98.3249 261.7892 15.08843181 96535,6917.871,95.437,540.646,538.825,0.0
54194.0,STARLINK-5271,PAYLOAD,2024-07-24 01:56:23,15.08836119,0.0001575,53.2176,138.8921,115.889,244.2264,-4.7151e-05,-1.038e-05,0.0,0 STARLINK-5271,1 54194U 22141AP  24206.08082639 -.00001038  00000-0 -47151-4 0  9999,2 54194  53.2176 138.8921 0001575 115.8890 244.2264 15.08836119 96619,6917.892,95.438,540.847,538.668,0.0
54194.0,STARLINK-5271,PAYLOAD,2024-07-24 19:25:37,15.08848338,0.0001582,53.2174,135.6216,129.1616,230.9517,-0.00010709,-1.992e-05,0.0,0 STARLINK-5271,1 54194U 22141AP  24206.80946305 -.00001992  00000-0 -10709-3 0  9995,2 54194  53.2174 135.6216 0001582 129.1616 230.9517 15.08848338 96722,6917.855,95.437,540.814,538.625,0.0
54194.0,STARLINK-5271,PAYLOAD,2024-07-24 22:36:23,15.08852759,0.000171,53.216,135.0323,138.0451,222.0673,-7.0639e-05,-1.413e-05,0.0,0 STARLINK-5271,1 54194U 22141AP  24206.94193807 -.00001413  00000-0 -70639-4 0  9998,2 54194  53.2160 135.0323 0001710 138.0451 222.0673 15.08852759 96513,6917.841,95.437,540.889,538.523,0.0
54194.0,STARLINK-5271,PAYLOAD,2024-07-25 04:57:55,15.08857766,0.0001391,53.2164,133.8412,118.2667,241.8466,2.5835e-05,1.23e-06,0.0,0 STARLINK-5271,1 54194U 22141AP  24207.20689170  .00000123  00000-0  25835-4 0  9994,2 54194  53.2164 133.8412 0001391 118.2667 241.8466 15.08857766 96787,6917.826,95.436,540.653,538.729,0.0
54194.0,STARLINK-5271,PAYLOAD,2024-07-25 22:27:11,15.08830279,0.0001468,53.2165,130.5686,114.5605,245.5541,0.00010504,1.384e-05,0.0,0 STARLINK-5271,1 54194U 22141AP  24207.93554767  .00001384  00000-0  10504-3 0  9993,2 54194  53.2165 130.5686 0001468 114.5605 245.5541 15.08830279 96663,6917.91,95.438,540.791,538.76,0.0
54194.0,STARLINK-5271,PAYLOAD,2024-07-26 04:48:43,15.0884274,0.0001217,53.2167,129.3802,105.3585,254.7541,9.6242e-05,1.244e-05,0.0,0 STARLINK-5271,1 54194U 22141AP  24208.20050089  .00001244  00000-0  96242-4 0  9991,2 54194  53.2167 129.3802 0001217 105.3585 254.7541 15.08842740 96936,6917.872,95.437,540.579,538.895,0.0
54194.0,STARLINK-5271,PAYLOAD,2024-07-27 22:08:45,15.08836539,0.0001521,53.216,121.6495,109.0503,251.0654,-4.0047e-05,-9.25e-06,0.0,0 STARLINK-5271,1 54194U 22141AP  24209.92274983 -.00000925  00000-0 -40047-4 0  9991,2 54194  53.2160 121.6495 0001521 109.0503 251.0654 15.08836539 96968,6917.891,95.438,540.808,538.704,0.0
54194.0,STARLINK-5271,PAYLOAD,2024-07-28 01:19:31,15.08837762,0.0001376,53.2157,121.0561,102.0448,258.0698,-9.3488e-05,-1.775e-05,0.0,0 STARLINK-5271,1 54194U 22141AP  24210.05523123 -.00001775  00000-0 -93488-4 0  9991,2 54194  53.2157 121.0561 0001376 102.0448 258.0698 15.08837762 97214,6917.887,95.438,540.704,538.8,0.0
54194.0,STARLINK-5271,PAYLOAD,2024-07-28 10:51:51,15.08822373,0.0001388,53.216,119.2721,97.3779,262.7371,0.00015946,2.25e-05,0.0,0 STARLINK-5271,1 54194U 22141AP  24210.45267602  .00002250  00000-0  15946-3 0  9991,2 54194  53.2160 119.2721 0001388  97.3779 262.7371 15.08822373 97279,6917.934,95.439,540.759,538.839,0.0
54194.0,STARLINK-5271,PAYLOAD,2024-07-28 21:59:33,15.08825636,0.000159,53.2173,117.1927,98.4823,261.6349,7.8145e-05,9.55e-06,0.0,0 STARLINK-5271,1 54194U 22141AP  24210.91635473  .00000955  00000-0  78145-4 0  9998,2 54194  53.2173 117.1927 0001590  98.4823 261.6349 15.08825636 97116,6917.924,95.438,540.889,538.689,0.0
54194.0,STARLINK-5271,PAYLOAD,2024-07-28 23:34:56,15.08827067,0.0001604,53.2169,116.8952,97.2006,262.9169,9.0724e-05,1.156e-05,0.0,0 STARLINK-5271,1 54194U 22141AP  24210.98259413  .00001156  00000-0  90724-4 0  9992,2 54194  53.2169 116.8952 0001604  97.2006 262.9169 15.08827067 97351,6917.92,95.438,540.895,538.675,0.0
54194.0,STARLINK-5271,PAYLOAD,2024-07-29 10:42:37,15.08835788,0.0001628,53.2175,114.8138,88.8586,271.2593,0.00014995,2.099e-05,0.0,0 STARLINK-5271,1 54194U 22141AP  24211.44627019  .00002099  00000-0  14995-3 0  9997,2 54194  53.2175 114.8138 0001628  88.8586 271.2593 15.08835788 97428,6917.893,95.438,540.884,538.632,0.0
54194.0,STARLINK-5271,PAYLOAD,2024-07-29 17:04:10,15.08833196,0.0001639,53.2177,113.6249,88.5667,271.5513,0.00013956,1.933e-05,0.0,0 STARLINK-5271,1 54194U 22141AP  24211.71123363  .00001933  00000-0  13956-3 0  9992,2 54194  53.2177 113.6249 0001639  88.5667 271.5513 15.08833196 97234,6917.901,95.438,540.9,538.632,0.0
54194.0,STARLINK-5271,PAYLOAD,2024-07-30 10:33:24,15.08843313,0.0001493,53.2175,110.3507,86.1939,273.9224,3.2697e-05,2.32e-06,0.0,0 STARLINK-5271,1 54194U 22141AP  24212.43987145  .00000232  00000-0  32697-4 0  9993,2 54194  53.2175 110.3507 0001493  86.1939 273.9224 15.08843313 97346,6917.87,95.437,540.768,538.702,0.0
54194.0,STARLINK-5271,PAYLOAD,2024-07-30 21:41:06,15.08844611,0.0001653,53.2172,108.2722,83.8326,276.2854,0.00013247,1.821e-05,0.0,0 STARLINK-5271,1 54194U 22141AP  24212.90354940  .00001821  00000-0  13247-3 0  9990,2 54194  53.2172 108.2722 0001653  83.8326 276.2854 15.08844611 97640,6917.866,95.437,540.875,538.588,0.0
54194.0,STARLINK-5271,PAYLOAD,2024-07-30 23:16:29,15.08845479,0.0001745,53.2173,107.9754,74.784,285.3345,0.00014395,2.004e-05,0.0,0 STARLINK-5271,1 54194U 22141AP  24212.96978910  .00002004  00000-0  14395-3 0  9994,2 54194  53.2173 107.9754 0001745  74.7840 285.3345 15.08845479 97429,6917.864,95.437,540.936,538.521,0.0
54194.0,STARLINK-5271,PAYLOAD,2024-07-31 10:24:11,15.08846725,0.0001642,53.2181,105.8944,81.7432,278.3747,6.6621e-05,7.73e-06,0.0,0 STARLINK-5271,1 54194U 22141AP  24213.43346838  .00000773  00000-0  66621-4 0  9996,2 54194  53.2181 105.8944 0001642  81.7432 278.3747 15.08846725 97497,6917.86,95.437,540.861,538.589,0.0
54194.0,STARLINK-5271,PAYLOAD,2024-07-31 21:31:54,15.08837919,0.000172,53.2174,103.8121,88.9392,271.1798,1.6548e-05,-2.5e-07,0.0,0 STARLINK-5271,1 54194U 22141AP  24213.89715538 -.00000025  00000-0  16548-4 0  9997,2 54194  53.2174 103.8121 0001720  88.9392 271.1798 15.08837919 97790,6917.887,95.438,540.942,538.562,0.0
54194.0,STARLINK-5271,PAYLOAD,2024-07-31 23:07:17,15.08839198,0.00016,53.2174,103.5138,88.2931,271.8245,-1.4565e-05,-5.2e-06,0.0,0 STARLINK-5271,1 54194U 22141AP  24213.96339513 -.00000520  00000-0 -14565-4 0  9998,2 54194  53.2174 103.5138 0001600  88.2931 271.8245 15.08839198 97575,6917.883,95.438,540.855,538.641,0.0
54194.0,STARLINK-5271,PAYLOAD,2024-08-01 21:22:40,15.08850888,0.0001535,53.2185,99.3468,103.1331,256.9832,7.1856e-05,8.56e-06,0.0,0 STARLINK-5271,1 54194U 22141AP  24214.89074089  .00000856  00000-0  71856-4 0  9991,2 54194  53.2185  99.3468 0001535 103.1331 256.9832 15.08850888 97949,6917.847,95.437,540.774,538.65,0.0
54194.0,STARLINK-5271,PAYLOAD,2024-08-01 22:58:02,15.08858603,0.0001357,53.2168,99.0524,94.4696,265.6451,2.9129e-05,1.76e-06,0.0,0 STARLINK-5271,1 54194U 22141AP  24214.95697793  .00000176  00000-0  29129-4 0  9992,2 54194  53.2168  99.0524 0001357  94.4696 265.6451 15.08858603 97721,6917.824,95.436,540.627,538.75,0.0
54194.0,STARLINK-5271,PAYLOAD,2024-08-02 21:13:28,15.08830222,0.0001532,53.2177,94.8843,101.0564,259.0601,2.9527e-05,1.82e-06,0.0,0 STARLINK-5271,1 54194U 22141AP  24215.88435843  .00000182  00000-0  29527-4 0  9990,2 54194  53.2177  94.8843 0001532 101.0564 259.0601 15.08830222 98094,6917.91,95.438,540.835,538.715,0.0
54194.0,STARLINK-5271,PAYLOAD,2024-08-02 22:48:51,15.08830757,0.0001435,53.217,94.5861,102.9433,257.172,3.8303e-05,3.22e-06,0.0,0 STARLINK-5271,1 54194U 22141AP  24215.95059815  .00000322  00000-0  38303-4 0  9997,2 54194  53.2170  94.5861 0001435 102.9433 257.1720 15.08830757 97870,6917.909,95.438,540.766,538.781,0.0
54194.0,STARLINK-5271,PAYLOAD,2024-08-03 22:39:39,15.08839628,0.0001432,53.2165,90.1302,87.9671,272.1485,-7.1765e-05,-1.43e-05,0.0,0 STARLINK-5271,1 54194U 22141AP  24216.94420176 -.00001430  00000-0 -71765-4 0  9991,2 54194  53.2165  90.1302 0001432  87.9671 272.1485 15.08839628 98028,6917.882,95.438,540.737,538.756,0.0
54194.0,STARLINK-5271,PAYLOAD,2024-08-04 08:11:57,15.08843909,0.0001795,53.2165,88.3458,63.2393,296.8782,-1.7219e-05,-5.62e-06,0.0,0 STARLINK-5271,1 54194U 22141AP  24217.34163990 -.00000562  00000-0 -17219-4 0  9993,2 54194  53.2165  88.3458 0001795  63.2393 296.8782 15.08843909 98085,6917.868,95.437,540.975,538.492,0.0
54194.0,STARLINK-5271,PAYLOAD,2024-08-04 20:55:01,15.08855371,0.0001572,53.2165,85.9664,101.4095,258.7073,0.00033117,4.989e-05,0.0,0 STARLINK-5271,1 54194U 22141AP  24217.87154283  .00004989  00000-0  33117-3 0  9995,2 54194  53.2165  85.9664 0001572 101.4095 258.7073 15.08855371 98394,6917.833,95.437,540.786,538.611,0.0
